<?xml version="1.0" encoding="UTF-8"?>
<response xmlns:xsd="http://www.w3.org/2001/XMLSchema" xmlns:xsi="http://www.w3.org/2001/XML-Schema-instance" version="1.2" xsi:noNamespaceSchemaLocation="http://aviationweather.gov/adds/schema/metar1_2.xsd">
  <request_index>44923109</request_index>
  <data_source name="metars" />
  <request type="retrieve" />
  <errors />
  <warnings />
  <time_taken_ms>3</time_taken_ms>
  <data num_results="3">
    <METAR>
      <raw_text>KOUN 240135Z AUTO 16012KT 10SM CLR 31/16 A2988 RMK AO2 LTG DSNT NW</raw_text>
      <station_id>KOUN</station_id>
      <observation_time>2014-08-24T01:35:00Z</observation_time>
      <latitude>35.25</latitude>
      <longitude>-97.47</longitude>
      <temp_c>31.0</temp_c>
      <dewpoint_c>16.0</dewpoint_c>
      <wind_dir_degrees>160</wind_dir_degrees>
      <wind_speed_kt>12</wind_speed_kt>
      <visibility_statute_mi>10.0</visibility_statute_mi>
      <altim_in_hg>29.878937</altim_in_hg>
      <quality_control_flags>
        <auto>TRUE</auto>
        <auto_station>TRUE</auto_station>
      </quality_control_flags>
      <sky_condition sky_cover="CLR" />
      <flight_category>VFR</flight_category>
      <metar_type>METAR</metar_type>
      <elevation_m>357.0</elevation_m>
    </METAR>
    <METAR>
      <raw_text>KOUN 240115Z AUTO 15009KT 10SM CLR 31/16 A2988 RMK AO2 LTG DSNT NW</raw_text>
      <station_id>KOUN</station_id>
      <observation_time>2014-08-24T01:15:00Z</observation_time>
      <latitude>35.25</latitude>
      <longitude>-97.47</longitude>
      <temp_c>31.0</temp_c>
      <dewpoint_c>16.0</dewpoint_c>
      <wind_dir_degrees>150</wind_dir_degrees>
      <wind_speed_kt>9</wind_speed_kt>
      <visibility_statute_mi>10.0</visibility_statute_mi>
      <altim_in_hg>29.878937</altim_in_hg>
      <quality_control_flags>
        <auto>TRUE</auto>
        <auto_station>TRUE</auto_station>
      </quality_control_flags>
      <sky_condition sky_cover="CLR" />
      <flight_category>VFR</flight_category>
      <metar_type>METAR</metar_type>
      <elevation_m>357.0</elevation_m>
    </METAR>
    <METAR>
      <raw_text>KOUN 240055Z AUTO 15010KT 10SM CLR 32/16 A2988 RMK AO2</raw_text>
      <station_id>KOUN</station_id>
      <observation_time>2014-08-24T00:55:00Z</observation_time>
      <latitude>35.25</latitude>
      <longitude>-97.47</longitude>
      <temp_c>32.0</temp_c>
      <dewpoint_c>16.0</dewpoint_c>
      <wind_dir_degrees>150</wind_dir_degrees>
      <wind_speed_kt>10</wind_speed_kt>
      <visibility_statute_mi>10.0</visibility_statute_mi>
      <altim_in_hg>29.878937</altim_in_hg>
      <quality_control_flags>
        <auto>TRUE</auto>
        <auto_station>TRUE</auto_station>
      </quality_control_flags>
      <sky_condition sky_cover="CLR" />
      <flight_category>VFR</flight_category>
      <metar_type>METAR</metar_type>
      <elevation_m>357.0</elevation_m>
    </METAR>
  </data>
</response>

