<?xml version="1.0" encoding="UTF-8"?>
<response xmlns:xsd="http://www.w3.org/2001/XMLSchema" xmlns:xsi="http://www.w3.org/2001/XML-Schema-instance" version="1.2" xsi:noNamespaceSchemaLocation="http://aviationweather.gov/adds/schema/metar1_2.xsd">
  <request_index>167781125</request_index>
  <data_source name="metars" />
  <request type="retrieve" />
  <errors />
  <warnings />
  <time_taken_ms>3</time_taken_ms>
  <data num_results="1">
    <METAR>
      <raw_text>KMDW 250651Z 17006KT 9SM BKN028 BKN250 27/24 A2999 RMK AO2 SLP141 T02720244</raw_text>
      <station_id>KMDW</station_id>
      <observation_time>2014-08-25T06:51:00Z</observation_time>
      <latitude>41.78</latitude>
      <longitude>-87.75</longitude>
      <temp_c>27.2</temp_c>
      <dewpoint_c>24.4</dewpoint_c>
      <wind_dir_degrees>170</wind_dir_degrees>
      <wind_speed_kt>6</wind_speed_kt>
      <visibility_statute_mi>9.0</visibility_statute_mi>
      <altim_in_hg>29.991142</altim_in_hg>
      <sea_level_pressure_mb>1014.1</sea_level_pressure_mb>
      <quality_control_flags>
        <auto_station>TRUE</auto_station>
      </quality_control_flags>
      <sky_condition sky_cover="BKN" cloud_base_ft_agl="2800" />
      <sky_condition sky_cover="BKN" cloud_base_ft_agl="25000" />
      <flight_category>MVFR</flight_category>
      <metar_type>SPECI</metar_type>
      <elevation_m>188.0</elevation_m>
    </METAR>
  </data>
</response>

