<?xml version="1.0" encoding="UTF-8"?>
<response xmlns:xsd="http://www.w3.org/2001/XMLSchema" xmlns:xsi="http://www.w3.org/2001/XML-Schema-instance" version="1.2" xsi:noNamespaceSchemaLocation="http://aviationweather.gov/adds/schema/metar1_2.xsd">
  <request_index>167615220</request_index>
  <data_source name="metars" />
  <request type="retrieve" />
  <errors />
  <warnings />
  <time_taken_ms>1361</time_taken_ms>
  <data num_results="1">
    <METAR>
      <raw_text>KMDW 250151Z 10004KT 10SM FEW024 28/24 A2998 RMK AO2 SLP141 T02830239</raw_text>
      <station_id>KMDW</station_id>
      <observation_time>2014-08-25T01:51:00Z</observation_time>
      <latitude>41.78</latitude>
      <longitude>-87.75</longitude>
      <temp_c>28.3</temp_c>
      <dewpoint_c>23.9</dewpoint_c>
      <wind_dir_degrees>100</wind_dir_degrees>
      <wind_speed_kt>4</wind_speed_kt>
      <visibility_statute_mi>10.0</visibility_statute_mi>
      <altim_in_hg>29.97933</altim_in_hg>
      <sea_level_pressure_mb>1014.1</sea_level_pressure_mb>
      <quality_control_flags>
        <auto_station>TRUE</auto_station>
      </quality_control_flags>
      <sky_condition sky_cover="FEW" cloud_base_ft_agl="2400" />
      <flight_category>VFR</flight_category>
      <metar_type>METAR</metar_type>
      <elevation_m>188.0</elevation_m>
    </METAR>
  </data>
</response>

